start=new Date('2022-12-23T00:00:00.000Z').valueOf();
sats=[{"FILE":"3719236","SEMIMAJOR_AXIS":"6925.359","NORAD_CAT_ID":"46119","MEAN_MOTION_DOT":"-0.00000278","LAUNCH_DATE":"2020-08-18","REV_AT_EPOCH":"12990","APOAPSIS":"548.309","ARG_OF_PERICENTER":"68.1833","ECCENTRICITY":"0.00015660","COUNTRY_CODE":"US","MEAN_MOTION_DDOT":"0.0000000000000","MEAN_MOTION":"15.06396499","GP_ID":"221203910","DECAY_DATE":null,"MEAN_ELEMENT_THEORY":"SGP4","INCLINATION":"53.0551","TLE_LINE1":"1 46119U 20057C   22356.53590112 -.00000278  00000-0  21970-6 0  9992","CENTER_NAME":"EARTH","PERIAPSIS":"546.140","RCS_SIZE":"LARGE","RA_OF_ASC_NODE":"183.0994","EPHEMERIS_TYPE":"0","REF_FRAME":"TEME","ELEMENT_SET_NO":"999","OBJECT_ID":"2020-057C","BSTAR":"0.00000021970000","EPOCH":"2022-12-22T12:51:41.856768","MEAN_ANOMALY":"291.9323","CLASSIFICATION_TYPE":"U","OBJECT_NAME":"STARLINK-1593","TIME_SYSTEM":"UTC","PERIOD":"95.592","TLE_LINE2":"2 46119  53.0551 183.0994 0001566  68.1833 291.9323 15.06396499129905","OBJECT_TYPE":"PAYLOAD","SITE":"AFETR"},{"PERIOD":"95.592","TLE_LINE2":"2 46120  53.0533 181.6994 0001458  68.8847 291.2298 15.06403579130570","SITE":"AFETR","OBJECT_TYPE":"PAYLOAD","BSTAR":"0.00006163100000","ELEMENT_SET_NO":"999","REF_FRAME":"TEME","OBJECT_ID":"2020-057D","MEAN_ANOMALY":"291.2298","TIME_SYSTEM":"UTC","CLASSIFICATION_TYPE":"U","OBJECT_NAME":"STARLINK-1601","EPOCH":"2022-12-22T20:28:10.241184","DECAY_DATE":null,"GP_ID":"221233588","MEAN_MOTION":"15.06403579","MEAN_ELEMENT_THEORY":"SGP4","INCLINATION":"53.0533","TLE_LINE1":"1 46120U 20057D   22356.85289631  .00000637  00000-0  61631-4 0  9994","MEAN_MOTION_DDOT":"0.0000000000000","EPHEMERIS_TYPE":"0","CENTER_NAME":"EARTH","PERIAPSIS":"546.193","RCS_SIZE":"LARGE","RA_OF_ASC_NODE":"181.6994","FILE":"3719655","SEMIMAJOR_AXIS":"6925.338","NORAD_CAT_ID":"46120","MEAN_MOTION_DOT":"0.00000637","LAUNCH_DATE":"2020-08-18","REV_AT_EPOCH":"13057","ECCENTRICITY":"0.00014580","COUNTRY_CODE":"US","APOAPSIS":"548.212","ARG_OF_PERICENTER":"68.8847"},{"EPOCH":"2022-12-22T19:43:03.160704","MEAN_ANOMALY":"299.3966","TIME_SYSTEM":"UTC","CLASSIFICATION_TYPE":"U","OBJECT_NAME":"STARLINK-1602","ELEMENT_SET_NO":"999","REF_FRAME":"TEME","OBJECT_ID":"2020-057E","BSTAR":"-0.00005474800000","OBJECT_TYPE":"PAYLOAD","SITE":"AFETR","PERIOD":"95.592","TLE_LINE2":"2 46121  53.0533 161.8340 0001833  60.7206 299.3966 15.06394447129564","APOAPSIS":"548.500","ARG_OF_PERICENTER":"60.7206","ECCENTRICITY":"0.00018330","COUNTRY_CODE":"US","SEMIMAJOR_AXIS":"6925.366","FILE":"3719655","NORAD_CAT_ID":"46121","MEAN_MOTION_DOT":"-0.00001097","LAUNCH_DATE":"2020-08-18","REV_AT_EPOCH":"12956","CENTER_NAME":"EARTH","PERIAPSIS":"545.961","RCS_SIZE":"LARGE","RA_OF_ASC_NODE":"161.8340","EPHEMERIS_TYPE":"0","MEAN_MOTION_DDOT":"0.0000000000000","MEAN_MOTION":"15.06394447","GP_ID":"221233839","DECAY_DATE":null,"MEAN_ELEMENT_THEORY":"SGP4","INCLINATION":"53.0533","TLE_LINE1":"1 46121U 20057E   22356.82156436 -.00001097  00000-0 -54748-4 0  9992"},{"MEAN_MOTION_DDOT":"0.0000000000000","GP_ID":"221232588","DECAY_DATE":null,"MEAN_ELEMENT_THEORY":"SGP4","MEAN_MOTION":"15.06411964","INCLINATION":"53.0543","TLE_LINE1":"1 46122U 20057F   22356.83076198 -.00000620  00000-0 -22696-4 0  9998","CENTER_NAME":"EARTH","PERIAPSIS":"546.077","RCS_SIZE":"LARGE","RA_OF_ASC_NODE":"141.7793","EPHEMERIS_TYPE":"0","SEMIMAJOR_AXIS":"6925.312","FILE":"3719655","NORAD_CAT_ID":"46122","MEAN_MOTION_DOT":"-0.00000620","LAUNCH_DATE":"2020-08-18","REV_AT_EPOCH":"13110","APOAPSIS":"548.277","ARG_OF_PERICENTER":"49.5524","ECCENTRICITY":"0.00015880","COUNTRY_CODE":"US","PERIOD":"95.591","TLE_LINE2":"2 46122  53.0543 141.7793 0001588  49.5524 310.5604 15.06411964131102","OBJECT_TYPE":"PAYLOAD","SITE":"AFETR","ELEMENT_SET_NO":"999","REF_FRAME":"TEME","OBJECT_ID":"2020-057F","BSTAR":"-0.00002269600000","EPOCH":"2022-12-22T19:56:17.835072","MEAN_ANOMALY":"310.5604","CLASSIFICATION_TYPE":"U","OBJECT_NAME":"STARLINK-1604","TIME_SYSTEM":"UTC"},{"COUNTRY_CODE":"US","ECCENTRICITY":"0.00014150","APOAPSIS":"548.204","ARG_OF_PERICENTER":"71.2256","LAUNCH_DATE":"2020-08-18","REV_AT_EPOCH":"13112","SEMIMAJOR_AXIS":"6925.359","FILE":"3719655","MEAN_MOTION_DOT":"0.00000331","NORAD_CAT_ID":"46123","EPHEMERIS_TYPE":"0","RA_OF_ASC_NODE":"141.8609","CENTER_NAME":"EARTH","PERIAPSIS":"546.244","RCS_SIZE":"LARGE","TLE_LINE1":"1 46123U 20057G   22356.81603538  .00000331  00000-0  41088-4 0  9994","GP_ID":"221232838","MEAN_MOTION":"15.06396476","DECAY_DATE":null,"MEAN_ELEMENT_THEORY":"SGP4","INCLINATION":"53.0535","MEAN_MOTION_DDOT":"0.0000000000000","CLASSIFICATION_TYPE":"U","TIME_SYSTEM":"UTC","OBJECT_NAME":"STARLINK-1605","MEAN_ANOMALY":"288.8886","EPOCH":"2022-12-22T19:35:05.456832","BSTAR":"0.00004108800000","OBJECT_ID":"2020-057G","ELEMENT_SET_NO":"999","REF_FRAME":"TEME","SITE":"AFETR","OBJECT_TYPE":"PAYLOAD","TLE_LINE2":"2 46123  53.0535 141.8609 0001415  71.2256 288.8886 15.06396476131125","PERIOD":"95.592"},{"INCLINATION":"53.0551","GP_ID":"221233090","MEAN_ELEMENT_THEORY":"SGP4","DECAY_DATE":null,"MEAN_MOTION":"15.06408515","TLE_LINE1":"1 46124U 20057H   22356.69069456 -.00000169  00000-0  75702-5 0  9997","MEAN_MOTION_DDOT":"0.0000000000000","EPHEMERIS_TYPE":"0","RCS_SIZE":"LARGE","CENTER_NAME":"EARTH","PERIAPSIS":"546.006","RA_OF_ASC_NODE":"142.4144","NORAD_CAT_ID":"46124","MEAN_MOTION_DOT":"-0.00000169","FILE":"3719655","SEMIMAJOR_AXIS":"6925.322","REV_AT_EPOCH":"12983","LAUNCH_DATE":"2020-08-18","ECCENTRICITY":"0.00017060","COUNTRY_CODE":"US","ARG_OF_PERICENTER":"58.6601","APOAPSIS":"548.369","PERIOD":"95.592","TLE_LINE2":"2 46124  53.0551 142.4144 0001706  58.6601 301.4555 15.06408515129839","SITE":"AFETR","OBJECT_TYPE":"PAYLOAD","BSTAR":"0.00000757020000","ELEMENT_SET_NO":"999","REF_FRAME":"TEME","OBJECT_ID":"2020-057H","MEAN_ANOMALY":"301.4555","CLASSIFICATION_TYPE":"U","OBJECT_NAME":"STARLINK-1614","TIME_SYSTEM":"UTC","EPOCH":"2022-12-22T16:34:36.009984"},{"TLE_LINE2":"2 46125  53.0506 181.9079 0001447  72.3582 287.7565 15.06398506130543","PERIOD":"95.592","SITE":"AFETR","OBJECT_TYPE":"PAYLOAD","BSTAR":"0.00006851200000","OBJECT_ID":"2020-057J","ELEMENT_SET_NO":"999","REF_FRAME":"TEME","TIME_SYSTEM":"UTC","CLASSIFICATION_TYPE":"U","OBJECT_NAME":"STARLINK-1618","MEAN_ANOMALY":"287.7565","EPOCH":"2022-12-22T19:19:09.352704","TLE_LINE1":"1 46125U 20057J   22356.80496936  .00000739  00000-0  68512-4 0  9990","GP_ID":"221233340","DECAY_DATE":null,"MEAN_ELEMENT_THEORY":"SGP4","MEAN_MOTION":"15.06398506","INCLINATION":"53.0506","MEAN_MOTION_DDOT":"0.0000000000000","EPHEMERIS_TYPE":"0","RA_OF_ASC_NODE":"181.9079","PERIAPSIS":"546.216","CENTER_NAME":"EARTH","RCS_SIZE":"LARGE","LAUNCH_DATE":"2020-08-18","REV_AT_EPOCH":"13054","FILE":"3719655","SEMIMAJOR_AXIS":"6925.353","NORAD_CAT_ID":"46125","MEAN_MOTION_DOT":"0.00000739","COUNTRY_CODE":"US","ECCENTRICITY":"0.00014470","APOAPSIS":"548.220","ARG_OF_PERICENTER":"72.3582"},{"SEMIMAJOR_AXIS":"6925.349","FILE":"3719655","MEAN_MOTION_DOT":"0.00001170","NORAD_CAT_ID":"46126","LAUNCH_DATE":"2020-08-18","REV_AT_EPOCH":"12929","ECCENTRICITY":"0.00013890","COUNTRY_CODE":"US","APOAPSIS":"548.176","ARG_OF_PERICENTER":"85.5099","MEAN_MOTION":"15.06399769","GP_ID":"221232090","DECAY_DATE":null,"MEAN_ELEMENT_THEORY":"SGP4","INCLINATION":"53.0529","TLE_LINE1":"1 46126U 20057K   22356.84552543  .00001170  00000-0  97408-4 0  9998","MEAN_MOTION_DDOT":"0.0000000000000","EPHEMERIS_TYPE":"0","CENTER_NAME":"EARTH","PERIAPSIS":"546.252","RCS_SIZE":"LARGE","RA_OF_ASC_NODE":"181.7309","BSTAR":"0.00009740800000","REF_FRAME":"TEME","ELEMENT_SET_NO":"999","OBJECT_ID":"2020-057K","MEAN_ANOMALY":"274.6049","OBJECT_NAME":"STARLINK-1619","CLASSIFICATION_TYPE":"U","TIME_SYSTEM":"UTC","EPOCH":"2022-12-22T20:17:33.397152","PERIOD":"95.592","TLE_LINE2":"2 46126  53.0529 181.7309 0001389  85.5099 274.6049 15.06399769129291","SITE":"AFETR","OBJECT_TYPE":"PAYLOAD"},{"RCS_SIZE":"LARGE","CENTER_NAME":"EARTH","PERIAPSIS":"545.805","RA_OF_ASC_NODE":"162.0592","EPHEMERIS_TYPE":"0","MEAN_MOTION_DDOT":"0.0000000000000","INCLINATION":"53.0543","GP_ID":"221232339","MEAN_MOTION":"15.06409564","DECAY_DATE":null,"MEAN_ELEMENT_THEORY":"SGP4","TLE_LINE1":"1 46127U 20057L   22356.76995218  .00000683  00000-0  64765-4 0  9998","ARG_OF_PERICENTER":"50.2052","APOAPSIS":"548.564","ECCENTRICITY":"0.00019920","COUNTRY_CODE":"US","MEAN_MOTION_DOT":"0.00000683","NORAD_CAT_ID":"46127","FILE":"3719655","SEMIMAJOR_AXIS":"6925.319","REV_AT_EPOCH":"12955","LAUNCH_DATE":"2020-08-18","OBJECT_TYPE":"PAYLOAD","SITE":"AFETR","PERIOD":"95.592","TLE_LINE2":"2 46127  53.0543 162.0592 0001992  50.2052 309.9112 15.06409564129559","EPOCH":"2022-12-22T18:28:43.868352","MEAN_ANOMALY":"309.9112","CLASSIFICATION_TYPE":"U","TIME_SYSTEM":"UTC","OBJECT_NAME":"STARLINK-1621","ELEMENT_SET_NO":"999","REF_FRAME":"TEME","OBJECT_ID":"2020-057L","BSTAR":"0.00006476500000"},{"ELEMENT_SET_NO":"999","REF_FRAME":"TEME","OBJECT_ID":"2020-057M","BSTAR":"0.00015317000000","EPOCH":"2022-12-22T14:21:55.371456","MEAN_ANOMALY":"301.1385","CLASSIFICATION_TYPE":"U","TIME_SYSTEM":"UTC","OBJECT_NAME":"STARLINK-1622","PERIOD":"95.592","TLE_LINE2":"2 46128  53.0550 142.8271 0001512  58.9753 301.1385 15.06403189129811","OBJECT_TYPE":"PAYLOAD","SITE":"AFETR","MEAN_MOTION_DOT":"0.00002001","NORAD_CAT_ID":"46128","FILE":"3719655","SEMIMAJOR_AXIS":"6925.339","REV_AT_EPOCH":"12981","LAUNCH_DATE":"2020-08-18","ARG_OF_PERICENTER":"58.9753","APOAPSIS":"548.251","ECCENTRICITY":"0.00015120","COUNTRY_CODE":"US","MEAN_MOTION_DDOT":"0.0000000000000","INCLINATION":"53.0550","DECAY_DATE":null,"GP_ID":"221233589","MEAN_ELEMENT_THEORY":"SGP4","MEAN_MOTION":"15.06403189","TLE_LINE1":"1 46128U 20057M   22356.59855754  .00002001  00000-0  15317-3 0  9994","RCS_SIZE":"LARGE","CENTER_NAME":"EARTH","PERIAPSIS":"546.157","RA_OF_ASC_NODE":"142.8271","EPHEMERIS_TYPE":"0"}];
